{
  "type": "FeatureCollection",
  "features": [
    {
      "type": "Feature",
      "properties": {
        "norad_id": 33860,
        "name": "IRIDIUM 33 DEB",
        "group": "iridium-33-debris",
        "lat": -28.07009262855248,
        "lon": 18.705718449643182,
        "alt_km": 671.4675587135271,
        "timestamp": "2025-12-27T15:27:11.579019+00:00",
        "meta_object_name": "IRIDIUM 33 DEB",
        "meta_object_id": "1997-051AD",
        "meta_epoch": "2025-12-27T07:27:44.772768",
        "meta_mean_motion": 14.67547387,
        "meta_eccentricity": 0.00057771,
        "meta_inclination": 86.3828,
        "meta_ra_of_asc_node": 20.7863,
        "meta_arg_of_pericenter": 298.5485,
        "meta_mean_anomaly": 75.5112,
        "meta_ephemeris_type": 0,
        "meta_classification_type": "U",
        "meta_norad_cat_id": 33860,
        "meta_element_set_no": 999,
        "meta_rev_at_epoch": 88936,
        "meta_bstar": 0.0012983936,
        "meta_mean_motion_dot": 7.389e-05,
        "meta_mean_motion_ddot": 0,
        "tle_line1": "1 33860U 97051AD  25361.31093487  .00007389  00000+0  12984-2 0  9996",
        "tle_line2": "2 33860  86.3828  20.7863 0005777 298.5485  75.5112 14.67547387889367"
      },
      "geometry": {
        "type": "Point",
        "coordinates": [
          18.705718449643182,
          -28.07009262855248
        ]
      }
    },
    {
      "type": "Feature",
      "properties": {
        "norad_id": 33862,
        "name": "IRIDIUM 33 DEB",
        "group": "iridium-33-debris",
        "lat": 57.49330861728511,
        "lon": -154.70049525363586,
        "alt_km": 664.7172405239344,
        "timestamp": "2025-12-27T15:27:11.579031+00:00",
        "meta_object_name": "IRIDIUM 33 DEB",
        "meta_object_id": "1997-051AF",
        "meta_epoch": "2025-12-27T02:04:57.806688",
        "meta_mean_motion": 14.69713889,
        "meta_eccentricity": 0.00518194,
        "meta_inclination": 86.4084,
        "meta_ra_of_asc_node": 31.2018,
        "meta_arg_of_pericenter": 20.9133,
        "meta_mean_anomaly": 35.0712,
        "meta_ephemeris_type": 0,
        "meta_classification_type": "U",
        "meta_norad_cat_id": 33862,
        "meta_element_set_no": 999,
        "meta_rev_at_epoch": 89034,
        "meta_bstar": 0.0018026931,
        "meta_mean_motion_dot": 0.00010991,
        "meta_mean_motion_ddot": 0,
        "tle_line1": "1 33862U 97051AF  25361.08678017  .00010991  00000+0  18027-2 0  9997",
        "tle_line2": "2 33862  86.4084  31.2018 0051819  20.9133  35.0712 14.69713889890349"
      },
      "geometry": {
        "type": "Point",
        "coordinates": [
          -154.70049525363586,
          57.49330861728511
        ]
      }
    },
    {
      "type": "Feature",
      "properties": {
        "norad_id": 33866,
        "name": "IRIDIUM 33 DEB",
        "group": "iridium-33-debris",
        "lat": -27.00294197439421,
        "lon": 84.84042407454284,
        "alt_km": 877.3127260380188,
        "timestamp": "2025-12-27T15:27:11.579042+00:00",
        "meta_object_name": "IRIDIUM 33 DEB",
        "meta_object_id": "1997-051AK",
        "meta_epoch": "2025-12-27T07:29:19.730688",
        "meta_mean_motion": 14.25320809,
        "meta_eccentricity": 0.01152589,
        "meta_inclination": 86.2998,
        "meta_ra_of_asc_node": 86.8706,
        "meta_arg_of_pericenter": 115.2237,
        "meta_mean_anomaly": 316.9491,
        "meta_ephemeris_type": 0,
        "meta_classification_type": "U",
        "meta_norad_cat_id": 33866,
        "meta_element_set_no": 999,
        "meta_rev_at_epoch": 87018,
        "meta_bstar": 0.00066918778,
        "meta_mean_motion_dot": 1.709e-05,
        "meta_mean_motion_ddot": 0,
        "tle_line1": "1 33866U 97051AK  25361.31203392  .00001709  00000+0  66919-3 0  9998",
        "tle_line2": "2 33866  86.2998  86.8706 0115258 115.2237 316.9491 14.25320809870189"
      },
      "geometry": {
        "type": "Point",
        "coordinates": [
          84.84042407454284,
          -27.00294197439421
        ]
      }
    },
    {
      "type": "Feature",
      "properties": {
        "norad_id": 33870,
        "name": "IRIDIUM 33 DEB",
        "group": "iridium-33-debris",
        "lat": 83.33479695256825,
        "lon": -161.00071364060872,
        "alt_km": 718.3204185874665,
        "timestamp": "2025-12-27T15:27:11.579053+00:00",
        "meta_object_name": "IRIDIUM 33 DEB",
        "meta_object_id": "1997-051AP",
        "meta_epoch": "2025-12-27T05:21:57.853728",
        "meta_mean_motion": 14.45922947,
        "meta_eccentricity": 0.00228135,
        "meta_inclination": 86.3732,
        "meta_ra_of_asc_node": 52.0513,
        "meta_arg_of_pericenter": 132.3375,
        "meta_mean_anomaly": 297.0077,
        "meta_ephemeris_type": 0,
        "meta_classification_type": "U",
        "meta_norad_cat_id": 33870,
        "meta_element_set_no": 999,
        "meta_rev_at_epoch": 88346,
        "meta_bstar": 0.00074104774,
        "meta_mean_motion_dot": 2.662e-05,
        "meta_mean_motion_ddot": 0,
        "tle_line1": "1 33870U 97051AP  25361.22358627  .00002662  00000+0  74105-3 0  9990",
        "tle_line2": "2 33870  86.3732  52.0513 0022813 132.3375 297.0077 14.45922947883466"
      },
      "geometry": {
        "type": "Point",
        "coordinates": [
          -161.00071364060872,
          83.33479695256825
        ]
      }
    },
    {
      "type": "Feature",
      "properties": {
        "norad_id": 33881,
        "name": "IRIDIUM 33 DEB",
        "group": "iridium-33-debris",
        "lat": -4.278117439959038,
        "lon": -79.46516276425895,
        "alt_km": 683.7876183277303,
        "timestamp": "2025-12-27T15:27:11.579064+00:00",
        "meta_object_name": "IRIDIUM 33 DEB",
        "meta_object_id": "1997-051BA",
        "meta_epoch": "2025-12-27T06:38:24.101376",
        "meta_mean_motion": 14.56845327,
        "meta_eccentricity": 0.00609653,
        "meta_inclination": 86.3853,
        "meta_ra_of_asc_node": 100.4236,
        "meta_arg_of_pericenter": 127.595,
        "meta_mean_anomaly": 291.3,
        "meta_ephemeris_type": 0,
        "meta_classification_type": "U",
        "meta_norad_cat_id": 33881,
        "meta_element_set_no": 999,
        "meta_rev_at_epoch": 87712,
        "meta_bstar": 0.0023748086,
        "meta_mean_motion_dot": 0.00010941,
        "meta_mean_motion_ddot": 0,
        "tle_line1": "1 33881U 97051BA  25361.27666784  .00010941  00000+0  23748-2 0  9998",
        "tle_line2": "2 33881  86.3853 100.4236 0060965 127.5950 291.3000 14.56845327877124"
      },
      "geometry": {
        "type": "Point",
        "coordinates": [
          -79.46516276425895,
          -4.278117439959038
        ]
      }
    },
    {
      "type": "Feature",
      "properties": {
        "norad_id": 33884,
        "name": "IRIDIUM 33 DEB",
        "group": "iridium-33-debris",
        "lat": 11.72138599419719,
        "lon": -177.66512647080475,
        "alt_km": 638.6226684359062,
        "timestamp": "2025-12-27T15:27:11.579075+00:00",
        "meta_object_name": "IRIDIUM 33 DEB",
        "meta_object_id": "1997-051BD",
        "meta_epoch": "2025-12-27T06:39:23.422752",
        "meta_mean_motion": 14.77728522,
        "meta_eccentricity": 0.00087452,
        "meta_inclination": 86.3709,
        "meta_ra_of_asc_node": 3.2548,
        "meta_arg_of_pericenter": 265.881,
        "meta_mean_anomaly": 113.76,
        "meta_ephemeris_type": 0,
        "meta_classification_type": "U",
        "meta_norad_cat_id": 33884,
        "meta_element_set_no": 999,
        "meta_rev_at_epoch": 89062,
        "meta_bstar": 0.001756351,
        "meta_mean_motion_dot": 0.0001263,
        "meta_mean_motion_ddot": 0,
        "tle_line1": "1 33884U 97051BD  25361.27735443  .00012630  00000+0  17564-2 0  9996",
        "tle_line2": "2 33884  86.3709   3.2548 0008745 265.8810 113.7600 14.77728522890625"
      },
      "geometry": {
        "type": "Point",
        "coordinates": [
          -177.66512647080475,
          11.72138599419719
        ]
      }
    },
    {
      "type": "Feature",
      "properties": {
        "norad_id": 33886,
        "name": "IRIDIUM 33 DEB",
        "group": "iridium-33-debris",
        "lat": 29.631454807537885,
        "lon": 63.01734609173351,
        "alt_km": 779.3073438061483,
        "timestamp": "2025-12-27T15:27:11.579086+00:00",
        "meta_object_name": "IRIDIUM 33 DEB",
        "meta_object_id": "1997-051BF",
        "meta_epoch": "2025-12-27T03:52:21.169632",
        "meta_mean_motion": 14.36068773,
        "meta_eccentricity": 0.00137205,
        "meta_inclination": 86.3818,
        "meta_ra_of_asc_node": 61.1579,
        "meta_arg_of_pericenter": 190.8914,
        "meta_mean_anomaly": 225.9418,
        "meta_ephemeris_type": 0,
        "meta_classification_type": "U",
        "meta_norad_cat_id": 33886,
        "meta_element_set_no": 999,
        "meta_rev_at_epoch": 88259,
        "meta_bstar": 0.00021197521,
        "meta_mean_motion_dot": 6.37e-06,
        "meta_mean_motion_ddot": 0,
        "tle_line1": "1 33886U 97051BF  25361.16135613  .00000637  00000+0  21198-3 0  9992",
        "tle_line2": "2 33886  86.3818  61.1579 0013720 190.8914 225.9418 14.36068773882596"
      },
      "geometry": {
        "type": "Point",
        "coordinates": [
          63.01734609173351,
          29.631454807537885
        ]
      }
    }
  ]
}